[{"OBJECT_NAME":"STARLINK-3599","OBJECT_ID":"2022-017AY","EPOCH":"2026-03-09T21:27:29.700000","MEAN_MOTION":15.08837421,"ECCENTRICITY":0.00011247,"INCLINATION":53.2187,"RA_OF_ASC_NODE":328.2056,"ARG_OF_PERICENTER":77.0109,"MEAN_ANOMALY":283.1009,"EPHEMERIS_TYPE":0,"CLASSIFICATION_TYPE":"U","NORAD_CAT_ID":51814,"ELEMENT_SET_NO":999,"REV_AT_EPOCH":22411,"BSTAR":-0.00012924773,"MEAN_MOTION_DOT":-2.344e-5,"MEAN_MOTION_DDOT":0},{"OBJECT_NAME":"LEMUR-2-MARHISYAM","OBJECT_ID":"2024-149BW","EPOCH":"2026-03-09T17:46:07.876416","MEAN_MOTION":15.0901552,"ECCENTRICITY":0.00035778,"INCLINATION":97.6912,"RA_OF_ASC_NODE":151.2662,"ARG_OF_PERICENTER":107.3271,"MEAN_ANOMALY":252.8349,"EPHEMERIS_TYPE":0,"CLASSIFICATION_TYPE":"U","NORAD_CAT_ID":60536,"ELEMENT_SET_NO":999,"REV_AT_EPOCH":8547,"BSTAR":0.00082973442,"MEAN_MOTION_DOT":0.00013075,"MEAN_MOTION_DDOT":0}]
